{
  "type": "FeatureCollection",
  "features": [
    {
      "type": "Feature",
      "properties": {
        "zone": "NCR",
        "name": "North Central Railway",
        "color": "#BBDEFB",
        "division": "Prayagraj, Agra, Jhansi"
      },
      "geometry": {
        "type": "Polygon",
        "coordinates": [
          [
            [
              77.5,
              24
            ],
            [
              83.5,
              24
            ],
            [
              83.5,
              28.6
            ],
            [
              77.5,
              28.6
            ],
            [
              77.5,
              24
            ]
          ]
        ]
      }
    }
  ]
}