{
  "type": "FeatureCollection",
  "features": [
    {
      "type": "Feature",
      "properties": {
        "zone": "NR",
        "name": "Northern Railway",
        "color": "#C8E6C9",
        "division": "Delhi, Ambala, Firozpur, Lucknow NR, Moradabad"
      },
      "geometry": {
        "type": "Polygon",
        "coordinates": [
          [
            [
              73.5,
              28.6
            ],
            [
              81.5,
              28.6
            ],
            [
              81.5,
              31
            ],
            [
              80,
              32.5
            ],
            [
              77.5,
              35.5
            ],
            [
              74.5,
              34
            ],
            [
              73.5,
              31.5
            ],
            [
              73.5,
              28.6
            ]
          ]
        ]
      }
    }
  ]
}