{
  "type": "FeatureCollection",
  "features": [
    {
      "type": "Feature",
      "properties": {
        "zone": "SECR",
        "name": "South East Central Railway",
        "color": "#D7CCC8",
        "division": "Bilaspur, Nagpur SEC, Raipur"
      },
      "geometry": {
        "type": "Polygon",
        "coordinates": [
          [
            [
              79.5,
              19
            ],
            [
              84.5,
              19
            ],
            [
              84.5,
              24
            ],
            [
              79.5,
              24
            ],
            [
              79.5,
              19
            ]
          ]
        ]
      }
    }
  ]
}