{
  "type": "FeatureCollection",
  "features": [
    {
      "type": "Feature",
      "properties": {
        "zone": "SR",
        "name": "Southern Railway",
        "color": "#B2DFDB",
        "division": "Chennai, Madurai, Palakkad, Salem, Thiruvananthapuram, Tiruchchirappalli"
      },
      "geometry": {
        "type": "Polygon",
        "coordinates": [
          [
            [
              75,
              8
            ],
            [
              80.5,
              8
            ],
            [
              80.5,
              13.5
            ],
            [
              77,
              13.5
            ],
            [
              75,
              11.5
            ],
            [
              75,
              8
            ]
          ]
        ]
      }
    }
  ]
}